{"type":"FeatureCollection","features":[{"type":"Feature","properties":{"roadSegmentId":"LSK001-NORTH","name":"荔枝角道北側行人路","geometryStatus":"TODO_GEOJSON_GEOMETRY"},"geometry":{"type":"LineString","coordinates":[]}},{"type":"Feature","properties":{"roadSegmentId":"LSK001-SOUTH","name":"荔枝角道南側行人路","geometryStatus":"TODO_GEOJSON_GEOMETRY"},"geometry":{"type":"LineString","coordinates":[]}},{"type":"Feature","properties":{"roadSegmentId":"LSK001-EAST","name":"長荔街東側行人路","geometryStatus":"TODO_GEOJSON_GEOMETRY"},"geometry":{"type":"LineString","coordinates":[]}},{"type":"Feature","properties":{"roadSegmentId":"LSK001-WEST","name":"長荔街西側行人路","geometryStatus":"TODO_GEOJSON_GEOMETRY"},"geometry":{"type":"LineString","coordinates":[]}}]}
